     2.100          NAVIGATION                              RINEX VERSION / TYPE
fic2rin                                 08/08/2016 00:07:23 PGM / RUN BY / DATE
                                                            END OF HEADER
28 16  8  7  4  0  0.0  .542697496712D-03  .272848410532D-11  .000000000000D+00
     .109000000000D+03  .183437500000D+02  .341264215024D-08 -.297262886750D+01
     .103004276752D-05  .197604662972D-01  .109672546387D-04  .515363347626D+04
     .144000000000D+05  .186264514923D-06  .724262171718D+00 -.931322574615D-08
     .989566634188D+00  .180000000000D+03 -.161343773507D+01 -.716208404383D-08
    -.439304013061D-10  .100000000000D+01  .190900000000D+04  .000000000000D+00
     .340000000000D+01  .000000000000D+00 -.107102096081D-07  .109000000000D+03
     .720600000000D+04  .400000000000D+01
29 16  8  7  4  0  0.0  .654162373394D-03 -.795807864051D-12  .000000000000D+00
     .470000000000D+02  .417812500000D+02  .418874590665D-08 -.175494102153D+01
     .224076211452D-05  .665894011036D-03  .478141009808D-05  .515376903534D+04
     .144000000000D+05 -.931322574615D-07  .175013486165D+01  .484287738800D-07
     .977864516942D+00  .297281250000D+03  .688373425059D-01 -.803854912355D-08
     .305369862738D-09  .100000000000D+01  .190900000000D+04  .000000000000D+00
     .240000000000D+01  .000000000000D+00 -.102445483208D-07  .470000000000D+02
     .720600000000D+04  .400000000000D+01
30 16  8  7  4  0  0.0  .144110992551D-03  .204636307899D-11  .000000000000D+00
     .940000000000D+02 -.331250000000D+02  .493306262472D-08 -.253495366414D+00
    -.195018947124D-05  .235081277788D-02  .609643757343D-05  .515357216263D+04
     .144000000000D+05  .596046447754D-07 -.333432667140D+00  .353902578354D-07
     .951539361697D+00  .257375000000D+03  .312475364726D+01 -.834891919457D-08
    -.519307345521D-09  .100000000000D+01  .190900000000D+04  .000000000000D+00
     .240000000000D+01  .000000000000D+00  .372529029846D-08  .940000000000D+02
     .720600000000D+04  .400000000000D+01
31 16  8  7  4  0  0.0  .254838261753D-03 -.204636307899D-11  .000000000000D+00
     .100000000000D+03 -.318125000000D+02  .454947521819D-08 -.501638440763D+00
    -.167824327946D-05  .816700910218D-02  .662729144096D-05  .515379315567D+04
     .144000000000D+05  .242143869400D-07 -.366877860770D+00 -.106170773506D-06
     .970550097707D+00  .258906250000D+03 -.392951552101D+00 -.819712715753D-08
    -.457161899771D-09  .100000000000D+01  .190900000000D+04  .000000000000D+00
     .240000000000D+01  .000000000000D+00 -.135041773319D-07  .100000000000D+03
     .720600000000D+04  .400000000000D+01
32 16  8  7  4  0  0.0 -.713770277798D-04 -.120508047985D-10  .000000000000D+00
     .850000000000D+02  .562187500000D+02  .490056127090D-08  .281295469607D+01
     .291131436825D-05  .627010245807D-03  .622496008873D-05  .515363048744D+04
     .144000000000D+05  .000000000000D+00 -.145323992381D+01 -.111758708954D-07
     .958863221142D+00  .258375000000D+03 -.228050850986D+01 -.826070123422D-08
     .252867675811D-09  .100000000000D+01  .190900000000D+04  .000000000000D+00
     .240000000000D+01  .000000000000D+00  .931322574615D-09  .850000000000D+02
     .720600000000D+04  .400000000000D+01
32 16  8  7  3 59 44.0 -.713774934411D-04 -.120508047985D-10  .000000000000D+00
     .220000000000D+02  .562187500000D+02  .490056127090D-08  .281062322889D+01
     .291131436825D-05  .627006287687D-03  .622496008873D-05  .515363048935D+04
     .143840000000D+05  .000000000000D+00 -.145323978922D+01 -.111758708954D-07
     .958863194809D+00  .258375000000D+03 -.228051085200D+01 -.826070123422D-08
     .252867675811D-09  .100000000000D+01  .190900000000D+04  .000000000000D+00
     .240000000000D+01  .000000000000D+00  .931322574615D-09  .220000000000D+02
     .123060000000D+05  .400000000000D+01
 3 16  8  7  3 59 44.0 -.788080506027D-04 -.272848410532D-11  .000000000000D+00
     .600000000000D+01 -.215000000000D+02  .450518765915D-08  .574256161080D+00
    -.101700425148D-05  .154412933625D-03  .116955488920D-04  .515365325737D+04
     .143840000000D+05  .558793544769D-08 -.249399065738D+01 -.298023223877D-07
     .959547916542D+00  .154500000000D+03 -.834316844897D+00 -.793033033009D-08
     .127862468842D-09  .100000000000D+01  .190900000000D+04  .000000000000D+00
     .240000000000D+01  .000000000000D+00  .139698386192D-08  .600000000000D+01
     .123960000000D+05  .400000000000D+01
 3 16  8  7  5 59 44.0 -.788276083767D-04 -.272848410532D-11  .000000000000D+00
     .190000000000D+02 -.128750000000D+02  .440554065131D-08  .161802510823D+01
    -.728294253349D-06  .154454959556D-03  .117290765047D-04  .515365495872D+04
     .215840000000D+05  .298023223877D-07 -.249404756490D+01 -.186264514923D-08
     .959548962529D+00  .156906250000D+03 -.827892830751D+00 -.789497171440D-08
     .119290683221D-09  .100000000000D+01  .190900000000D+04  .000000000000D+00
     .240000000000D+01  .000000000000D+00  .139698386192D-08  .190000000000D+02
     .144060000000D+05  .400000000000D+01
32 16  8  7  5 59 44.0 -.714645721018D-04 -.120508047985D-10  .000000000000D+00
     .230000000000D+02  .542187500000D+02  .492949104737D-08 -.242225967023D+01
     .285357236862D-05  .627211295068D-03  .625662505627D-05  .515363013840D+04
     .215840000000D+05  .577419996262D-07 -.145329959917D+01  .186264514923D-07
     .958865076122D+00  .257906250000D+03 -.228060270277D+01 -.828463080241D-08
     .299655338991D-09  .100000000000D+01  .190900000000D+04  .000000000000D+00
     .240000000000D+01  .000000000000D+00  .931322574615D-09  .230000000000D+02
     .144060000000D+05  .400000000000D+01
 1 16  8  7  6  0  0.0  .295257195830D-04  .125055521494D-11  .000000000000D+00
     .980000000000D+02 -.637812500000D+02  .454126059030D-08  .142158136131D+01
    -.338815152645D-05  .578754046001D-02  .582635402679D-05  .515363870811D+04
     .216000000000D+05 -.558793544769D-07  .274794908857D+01  .651925802231D-07
     .965266008347D+00  .269000000000D+03  .514706509489D+00 -.825248660633D-08
    -.251439044874D-09  .100000000000D+01  .190900000000D+04  .000000000000D+00
     .240000000000D+01  .000000000000D+00  .512227416039D-08  .980000000000D+02
     .144060000000D+05  .400000000000D+01
 2 16  8  7  6  0  0.0  .568070448935D-03 -.432009983342D-11  .000000000000D+00
     .720000000000D+02 -.641875000000D+02  .497842165696D-08  .183500221386D+01
    -.344403088093D-05  .158534112852D-01  .492297112942D-05  .515361046600D+04
     .216000000000D+05 -.249594449997D-06  .270089245455D+01 -.301748514175D-06
     .944037674318D+00  .275843750000D+03 -.209553813832D+01 -.846678124685D-08
    -.107147320259D-09  .100000000000D+01  .190900000000D+04  .000000000000D+00
     .340000000000D+01  .000000000000D+00 -.204890966415D-07  .720000000000D+02
     .144060000000D+05  .400000000000D+01
 4 16  8  7  6  0  0.0 -.259854830801D-03 -.341060513165D-12  .000000000000D+00
     .850000000000D+02  .274062500000D+02  .500699427569D-08 -.164516808735D+01
     .138022005558D-05  .845925032627D-02  .106301158667D-04  .515366844749D+04
     .216000000000D+05  .193715095520D-06  .670740885153D+00 -.465661287308D-07
     .983313386469D+00  .188781250000D+03  .903444816560D+00 -.755602902465D-08
    -.143220251413D-09  .100000000000D+01  .190900000000D+04  .000000000000D+00
     .340000000000D+01  .630000000000D+02 -.195577740669D-07  .850000000000D+02
     .144060000000D+05  .400000000000D+01
 5 16  8  7  6  0  0.0 -.998936593533D-04  .272848410532D-11  .000000000000D+00
     .290000000000D+02 -.260937500000D+02  .468019494891D-08 -.195598810790D+01
    -.168196856976D-05  .464962376282D-02  .109709799290D-04  .515357605934D+04
     .216000000000D+05 -.931322574615D-08 -.250691367047D+01 -.800937414169D-07
     .946604747373D+00  .158281250000D+03  .471685886513D+00 -.799497587998D-08
     .183579075377D-09  .100000000000D+01  .190900000000D+04  .000000000000D+00
     .240000000000D+01  .000000000000D+00 -.107102096081D-07  .290000000000D+02
     .144060000000D+05  .400000000000D+01
 6 16  8  7  6  0  0.0  .229189172387D-03  .522959453519D-11  .000000000000D+00
     .140000000000D+02 -.633437500000D+02  .450090176634D-08  .163811439230D+01
    -.313669443130D-05  .279200263321D-03  .544078648090D-05  .515373955154D+04
     .216000000000D+05  .111758708954D-07  .273953397855D+01 -.204890966415D-07
     .965079495069D+00  .275093750000D+03 -.130558902695D+01 -.821998525252D-08
    -.109647424398D-09  .100000000000D+01  .190900000000D+04  .000000000000D+00
     .240000000000D+01  .000000000000D+00  .419095158577D-08  .140000000000D+02
     .144060000000D+05  .400000000000D+01
 7 16  8  7  6  0  0.0  .436631496996D-03 -.272848410532D-11  .000000000000D+00
     .480000000000D+02 -.257812500000D+02  .481984362298D-08  .720474292063D+00
    -.115483999252D-05  .988200108986D-02  .579096376896D-05  .515363119507D+04
     .216000000000D+05  .000000000000D+00 -.376601846521D+00  .113621354103D-06
     .965733186846D+00  .267968750000D+03 -.265065199731D+01 -.837534886690D-08
    -.541451125041D-09  .100000000000D+01  .190900000000D+04  .000000000000D+00
     .240000000000D+01  .000000000000D+00 -.111758708954D-07  .480000000000D+02
     .144060000000D+05  .400000000000D+01
 8 16  8  7  6  0  0.0 -.456646084785D-04 -.136424205266D-11  .000000000000D+00
     .980000000000D+02  .515625000000D+02  .453161733148D-08 -.192363258050D+01
     .269897282124D-05  .167943816632D-02  .529550015926D-05  .515372916603D+04
     .216000000000D+05  .447034835815D-07  .168667722776D+01  .521540641785D-07
     .963712004599D+00  .280375000000D+03 -.103288387990D+01 -.828855953749D-08
     .315370279295D-09  .100000000000D+01  .190900000000D+04  .000000000000D+00
     .340000000000D+01  .000000000000D+00  .512227416039D-08  .980000000000D+02
     .144060000000D+05  .400000000000D+01
